ONEWEB-0401             
1 50481U 21132N   24004.92330522  .00000037  00000+0  61476-4 0  9990
2 50481  87.9222 153.3933 0001334 111.9676 248.1598 13.18681671103754
ONEWEB-0402             
1 50482U 21132P   24004.88854043  .00000086  00000+0  18600-3 0  9999
2 50482  87.9222 153.3970 0001734 121.0825 239.0478 13.18688426103771
ONEWEB-0403             
1 50483U 21132Q   24004.91225696  .00000085  00000+0  18165-3 0  9995
2 50483  87.9222 153.3970 0001206 100.2847 259.8421 13.18686242103737
ONEWEB-0404             
1 50484U 21132R   24004.90433462  .00000513  00000+0  14130-2 0  9990
2 50484  87.8964 198.7855 0001125  71.4301 288.6949 13.11415684 98482
ONEWEB-0405             
1 50485U 21132S   24004.92806942  .00000127  00000+0  29058-3 0  9997
2 50485  87.9227 153.3825 0001243 119.2762 240.8494 13.18688653104133
ONEWEB-0406             
1 50486U 21132T   24004.91698468  .00000090  00000+0  19677-3 0  9994
2 50486  87.9221 153.3940 0001175  84.0388 276.0878 13.18682578103768
ONEWEB-0407             
1 50487U 21132U   24004.91066384  .00000102  00000+0  22517-3 0  9992
2 50487  87.9221 153.4037 0001313 105.2006 254.9271 13.18688011103708
ONEWEB-0409             
1 50488U 21132V   24004.90270623  .00000481  00000+0  13200-2 0  9993
2 50488  87.8953 198.7967 0001501  63.1013 297.0268 13.11418099 98373
